STARLINK-37121          
1 68383U 26063D   26092.75002315 -.01739258  89964-3 -37639-2 0  9993
2 68383  97.2829 233.5429 0001607  66.6097  84.9503 15.98510861  2323
