{
  "norad_id": 68383,
  "name": "STARLINK-37121",
  "history": [
    {
      "epoch": "2026-04-02T18:00:01.999296Z",
      "apogee_km": 279.6200423666296,
      "perigee_km": 277.47925194090476,
      "latitude_deg": 28.219198685665763,
      "longitude_deg": -43.649503129557,
      "height_km": 282.15544583867114,
      "semi_major_axis_km": 6656.686647153767,
      "eccentricity": 0.0001608,
      "inclination_deg": 97.2829,
      "raan_deg": 233.5429,
      "arg_perigee_deg": 66.6097,
      "mean_anomaly_deg": 84.9503,
      "mean_motion_rev_day": 15.98510861
    }
  ]
}